STARLINK-3176           
1 51106U 22005C   22264.83751266 -.00001352  00000+0 -66838-4 0  9993
2 51106  53.2163 207.2504 0001967  44.9429 315.1722 15.08832759 37920
STARLINK-3368           
1 51107U 22005D   22264.83754095  .00001094  00000+0  86803-4 0  9992
2 51107  53.2175 217.2699 0001800  52.0087 308.1068 15.08838370 37791
STARLINK-3362           
1 51108U 22005E   22265.12086750 -.00000248  00000+0  25058-5 0  9999
2 51108  53.2161 206.0028 0001963  51.3322 308.7845 15.08834705 39073
STARLINK-3358           
1 51109U 22005F   22264.34903041 -.00000876  00000+0 -36955-4 0  9999
2 51109  53.2165 209.4451 0002004  44.5753 315.5400 15.08830971 37627
STARLINK-3344           
1 51110U 22005G   22264.58359417  .00003643  00000+0  24688-3 0  9991
2 51110  53.2152 208.4139 0002141  54.0834 306.0356 15.08843002 37898
STARLINK-3173           
1 51111U 22005H   22264.22663666 -.00001582  00000+0 -81318-4 0  9993
2 51111  53.2187 210.0046 0001718  58.5207 301.5953 15.08826425 37832
STARLINK-3374           
1 51112U 22005J   22265.10982895  .00000764  00000+0  66104-4 0  9995
2 51112  53.2182 206.0497 0001967  49.0000 311.1162 15.08834945 39089
STARLINK-3372           
1 51113U 22005K   22265.09878707  .00001857  00000+0  13472-3 0  9993
2 51113  53.2169 206.0808 0001818  53.4418 306.6742 15.08839439 39073
STARLINK-3375           
1 51114U 22005L   22264.98471192  .00003299  00000+0  22537-3 0  9992
2 51114  53.2172 206.6142 0001889  49.4436 310.6720 15.08824838 39065
STARLINK-3397           
1 51115U 22005M   22265.09142402  .00001464  00000+0  11007-3 0  9997
2 51115  53.2155 206.1132 0001760  55.8515 304.2644 15.08838460 39079
STARLINK-3243           
1 51116U 22005N   22265.10615104  .00000771  00000+0  66517-4 0  9991
2 51116  53.2163 206.0525 0001530  44.2178 315.8936 15.08833179 39070
STARLINK-3391           
1 51117U 22005P   22265.14292976 -.00013481  00000+0 -82927-3 0  9990
2 51117  53.2169 205.8900 0001852  37.4286 322.6835 15.08893225 39085
STARLINK-3394           
1 51118U 22005Q   22264.23398985 -.00000236  00000+0  32769-5 0  9991
2 51118  53.2158 209.9672 0001944  41.8786 318.2354 15.08835756 37834
STARLINK-3390           
1 51119U 22005R   22264.54310665 -.00001475  00000+0 -74587-4 0  9995
2 51119  53.2139 208.5910 0001848  42.5124 317.6011 15.08832546 37883
STARLINK-3398           
1 51120U 22005S   22264.27077623 -.00004208  00000+0 -24633-3 0  9994
2 51120  53.2157 209.8199 0001915  44.8803 315.2344 15.08857626 37847
STARLINK-3399           
1 51121U 22005T   22264.21926053  .00000557  00000+0  53084-4 0  9993
2 51121  53.2170 210.0302 0002043  48.5566 311.5601 15.08840276 37830
STARLINK-3373           
1 51122U 22005U   22265.13558352  .00000485  00000+0  48554-4 0  9995
2 51122  53.2178 205.9381 0001617  59.5005 300.6147 15.08840298 39082
STARLINK-3392           
1 51123U 22005V   22264.26710531  .00000448  00000+0  46234-4 0  9990
2 51123  53.2183 209.8378 0001931  54.2273 305.8899 15.08835056 37845
STARLINK-3389           
1 51124U 22005W   22265.17146643  .00000321  00000+0  38249-4 0  9996
2 51124  53.2174 215.7695 0001983  52.1254 307.9917 15.08835804 38955
STARLINK-3387           
1 51125U 22005X   22264.29930565 -.00000388  00000+0 -62882-5 0  9999
2 51125  53.2184 219.6892 0002084  61.2037 298.9164 15.08840873 37697
STARLINK-3386           
1 51126U 22005Y   22264.70410469  .00000010  00000+0  18729-4 0  9992
2 51126  53.2156 217.8715 0002025  51.5505 308.5669 15.08834585 37778
STARLINK-3370           
1 51127U 22005Z   22264.30298876 -.00000982  00000+0 -43601-4 0  9992
2 51127  53.2171 219.6728 0001830  46.7956 313.3189 15.08832323 37701
STARLINK-3400           
1 51128U 22005AA  22264.61578898  .00000169  00000+0  28750-4 0  9995
2 51128  53.2162 218.2733 0001867  57.6682 302.4491 15.08837203 37741
STARLINK-3396           
1 51129U 22005AB  22265.17246217  .00023112  00000+0  14690-2 0  9994
2 51129  53.2154 215.7716 0002567  63.8022 296.3234 15.08750227 38962
STARLINK-3395           
1 51130U 22005AC  22264.29563277 -.00000136  00000+0  95422-5 0  9993
2 51130  53.2163 219.7074 0001735  37.4596 322.6517 15.08836873 37692
STARLINK-3388           
1 51131U 22005AD  22264.28825889 -.00000314  00000+0 -16125-5 0  9995
2 51131  53.2173 219.7431 0002126  47.1379 312.9791 15.08844969 37694
STARLINK-3393           
1 51132U 22005AE  22264.29195118 -.00001370  00000+0 -67962-4 0  9999
2 51132  53.2175 219.7260 0001889  53.0797 307.0368 15.08840308 37690
STARLINK-3356           
1 51133U 22005AF  22264.94330146  .00000557  00000+0  53097-4 0  9992
2 51133  53.2174 216.7992 0001854  43.3407 316.7731 15.08838018 38913
STARLINK-3183           
1 51134U 22005AG  22264.24965970 -.00000530  00000+0 -15205-4 0  9997
2 51134  53.2188 209.8905 0002315  56.7775 303.3438 15.08842101 37840
STARLINK-3363           
1 51135U 22005AH  22265.13834303  .00000891  00000+0  74096-4 0  9993
2 51135  53.2157 215.9273 0001918  50.7490 309.3672 15.08841439 38940
STARLINK-3253           
1 51136U 22005AJ  22265.07308909  .00019093  00000+0  12171-2 0  9993
2 51136  53.2172 216.2146 0002655  59.0619 301.0634 15.08758748 38942
STARLINK-3180           
1 51137U 22005AK  22265.12731121 -.00000400  00000+0 -70239-5 0  9992
2 51137  53.2172 215.9700 0001873  54.4354 305.6812 15.08833011 38946
STARLINK-3177           
1 51138U 22005AL  22265.13466791 -.00001036  00000+0 -46983-4 0  9996
2 51138  53.2180 215.9182 0001827  49.0888 311.0262 15.08841283 38941
STARLINK-3172           
1 51139U 22005AM  22264.39130763  .00000850  00000+0  71517-4 0  9993
2 51139  53.2183 219.2706 0001964  44.3587 315.7563 15.08837003 37725
STARLINK-3175           
1 51140U 22005AN  22265.13099158  .00000066  00000+0  22240-4 0  9998
2 51140  53.2171 215.9457 0001752  48.4799 311.6343 15.08834787 38947
STARLINK-3179           
1 51141U 22005AP  22264.64892817 -.00002194  00000+0 -11981-3 0  9992
2 51141  53.2156 218.1156 0002037  28.8473 331.2631 15.08821175 37764
STARLINK-3369           
1 51142U 22005AQ  22265.00001157 -.00039936  00000+0 -25037-2 0  9993
2 51142  53.2154 206.5429 0001877  49.9165  88.1774 15.08859438  1300
STARLINK-3184           
1 51143U 22005AR  22265.16319867  .00013996  00000+0  89605-3 0  9999
2 51143  53.2143 225.8125 0001760  65.0927 295.0248 15.08827109 38802
STARLINK-3185           
1 51144U 22005AS  22263.92394764  .00003707  00000+0  25085-3 0  9992
2 51144  53.2171 221.3711 0001846  46.4427 313.6718 15.08846277 37657
STARLINK-3365           
1 51145U 22005AT  22265.09328212  .00008524  00000+0  55347-3 0  9994
2 51145  53.2191 226.1274 0001222  59.4831 300.6282 15.08807493 38793
STARLINK-3354           
1 51146U 22005AU  22264.59370164  .00000796  00000+0  68134-4 0  9994
2 51146  53.2186 218.3619 0001933  48.0719 312.0438 15.08843291 37742
STARLINK-3352           
1 51147U 22005AV  22265.16686889  .00000129  00000+0  26215-4 0  9997
2 51147  53.2175 225.7960 0001651  58.4405 301.6748 15.08832555 38814
STARLINK-3359           
1 51148U 22005AW  22264.62591038 -.00000430  00000+0 -89213-5 0  9994
2 51148  53.2165 228.2110 0002002  56.3501 303.7682 15.08832707 37610
STARLINK-3360           
1 51149U 22005AX  22264.62223095  .00000260  00000+0  34438-4 0  9997
2 51149  53.2150 228.2236 0001569  65.0246 295.0909 15.08833816 37611
STARLINK-3357           
1 51150U 22005AY  22265.10890899  .00000847  00000+0  71287-4 0  9999
2 51150  53.2175 216.0508 0001684  61.7445 298.3716 15.08836554 38940
STARLINK-3361           
1 51151U 22005AZ  22264.94608226  .00008171  00000+0  53156-3 0  9994
2 51151  53.2157 226.7626 0001651  63.0763 297.0398 15.08792269 38779
STARLINK-3364           
1 51152U 22005BA  22264.94975184 -.00004638  00000+0 -27339-3 0  9995
2 51152  53.2164 226.7541 0001703  43.4011 316.7115 15.08849601 38779
USA 324                 
1 51280U 22006A   22262.36854686 -.00000077  00000+0  00000+0 0  9999
2 51280   0.1575  81.8858 0002966  82.7459 317.7964  1.00261549  2403
USA 325                 
1 51281U 22006B   22263.35543645 -.00000091  00000+0  00000+0 0  9996
2 51281   0.1820  95.8799 0003095 105.5556 276.4183  1.00220849  2415
L-SAR 01A               
1 51284U 22007A   22264.07191226 -.00000323  00000+0 -29043-4 0  9996
2 51284  97.8129 270.0993 0001713  84.0984 276.0337 14.88408538 35413
ASCENT                  
1 51287U 21118E   22264.16901161 -.00000235  00000+0  00000+0 0  9996
2 51287   0.6875  96.8852 0006601  81.9480 181.1810  1.01257841  2496
ELSA-D CLIENT           
1 51288U 21022AQ  22264.49825940  .00002441  00000+0  15946-3 0  9996
2 51288  97.5150 162.4253 0018433 163.8254 196.3567 15.08615854 36047
1998-067TD              
1 51441U 98067TD  22264.93994001  .00106184  00000+0  72067-3 0  9990
2 51441  51.6324 199.0241 0003959 195.5738 164.5140 15.74128093 37302
PATCOOL                 
1 51442U 98067TE  22264.25974320  .00107204  00000+0  72241-3 0  9996
2 51442  51.6327 201.9507 0003591 193.5389 166.5514 15.74291458 37163
CSG-2                   
1 51444U 22008A   22265.10227558 -.00000935  00000+0 -11091-3 0  9990
2 51444  97.8901  87.3821 0001313  87.9613 272.1780 14.82143348 34535
STARLINK-3167           
1 51460U 22010E   22264.96354845 -.00001915  00000+0 -10225-3 0  9991
2 51460  53.2172 196.6997 0001589  61.8804 298.2349 15.08830663 36337
STARLINK-3181           
1 51461U 22010F   22264.84947729 -.00000932  00000+0 -40479-4 0  9991
2 51461  53.2187 197.2247 0002098  40.4006 319.7141 15.08826917 35876
STARLINK-3166           
1 51462U 22010G   22264.64706460  .00000012  00000+0  18854-4 0  9994
2 51462  53.2171 198.1270 0001824  45.0710 315.0430 15.08834864 35842
STARLINK-3419           
1 51463U 22010H   22265.08499499  .00001776  00000+0  12966-3 0  9990
2 51463  53.2191 196.1553 0001744  55.0591 305.0565 15.08846143 36354
